GOES-16
1 41866U 16071A   26066.12961598 -.00000093  00000-0  00000+0 0  9993
2 41866   0.1375  89.0814 0002367 223.3484 154.3671  1.00272234 34080
FENGYUN-4A
1 41882U 16077A   26065.89130800 -.00000359  00000-0  00000+0 0  9999
2 41882   2.0624  81.3878 0007258 134.9172  32.7984  1.00278236 33900
FOX-1B (AO-91)
1 43017U 17073E   26066.07847335  .00011461  00000-0  52006-3 0  9999
2 43017  97.4859 295.4303 0154813 321.2352  37.7849 15.10805147449967
CANX-2
1 32790U 08021H   26066.18026434  .00005628  00000-0  40307-3 0  9998
2 32790  97.8566  44.0900 0011782  37.9204 322.2849 15.04761940969466
AIST-2 (RS-43)
1 39133U 13015D   26066.19887867  .00009118  00000-0  36845-3 0  9991
2 39133  64.8684 230.5236 0024188 248.9916 110.8627 15.25020008708340
NANOSATC-BR1
1 40024U 14033Q   26066.03591817  .00020048  00000-0  73577-3 0  9991
2 40024  98.0842  89.5850 0004368 155.6453 204.4991 15.27990956638366
QB50P1
1 40025U 14033R   26066.00469717  .00011500  00000-0  59414-3 0  9999
2 40025  98.1010  70.1061 0007996 204.0446 156.0413 15.16446250637536
QB50P2
1 40032U 14033Y   26065.95295301  .00009908  00000-0  55514-3 0  9992
2 40032  98.0735  56.6033 0008432 150.0335 210.1379 15.13604250637196
PERSEUS-M2
1 40037U 14033AD  26066.15078016  .00003082  00000-0  28609-3 0  9994
2 40037  97.9878  14.7077 0010164 281.3323  78.6754 14.95148611635533
PERSEUS-M1
1 40039U 14033AF  26065.39497066  .00003567  00000-0  32945-3 0  9997
2 40039  97.9559   7.9297 0009907 281.0478  78.9628 14.95234871635278
POLYITAN-1
1 40042U 14033AJ  26065.99197833  .00024202  00000-0  84897-3 0  9998
2 40042  98.1049  82.8355 0009144 135.4602 224.7372 15.29402657637951
TIGRISAT
1 40043U 14033AK  26065.89421347  .00002966  00000-0  34861-3 0  9997
2 40043  97.7669 218.3641 0050551  51.3673 309.2051 14.84708950630446
UKUBE-1
1 40074U 14037F   26065.96979703  .00011887  00000-0  70149-3 0  9998
2 40074  98.4234  58.6553 0003041 112.3958 247.7591 15.11717714633109
DEORBITSAIL
1 40719U 15032E   26066.17140205  .00010024  00000-0  76324-3 0  9994
2 40719  97.5982 284.9728 0011871 218.6161 141.4216 15.02224211575923
HORYU-IV
1 41340U 16012D   26066.10338303  .00091629  00000-0  98540-3 0  9999
2 41340  30.9914  86.0956 0002583 125.8561 234.2331 15.62332085554704
D-SAT
1 42794U 17036AF  26066.20972727  .00009057  00000-0  44002-3 0  9993
2 42794  97.5488  45.5619 0085012 153.7372 206.8209 15.15473271475406
CORVUS-BC2
1 42846U 17042X   26065.93609889  .00005609  00000-0  39238-3 0  9997
2 42846  97.3943 231.3731 0014361 101.8509 258.4330 15.05574130471671
CORVUS-BC1
1 42847U 17042Y   26066.00947095  .00005085  00000-0  35425-3 0  9993
2 42847  97.3973 232.1872 0013170  79.9946 280.2767 15.05784716471712
APRIZESAT-5 
1 37792U 11044E   26065.57988650  .00002105  00000-0  27406-3 0  9995
2 37792  98.2402 355.7657 0051926 334.6195  25.2467 14.80846140783603
APRIZESAT-6
1 37793U 11044F   26065.52274729  .00001376  00000-0  20124-3 0  9995
2 37793  98.2420 333.9100 0044401  55.3828 120.7989 14.76744408781994
APRIZESAT-7
1 39416U 13066A   26066.10841168  .00001821  00000-0  18649-3 0  9991
2 39416  97.7595  20.8860 0035649 187.3450 172.7251 14.91271650666016
APRIZESAT-8
1 39425U 13066K   26066.09825085  .00001686  00000-0  18931-3 0  9992
2 39425  97.8116  15.0742 0044587 261.7518  97.8641 14.87414176664491
BUGSAT-1 (TITA)
1 40014U 14033E   26066.19376072  .00007275  00000-0  39549-3 0  9999
2 40014  98.0431 152.8757 0029152 166.9444 193.2547 15.14455261640391
SAUDISAT-4
1 40016U 14033G   26065.99265532  .00001032  00000-0  14292-3 0  9999
2 40016  97.7406 215.7607 0045890  47.3099 313.1964 14.79383413630966
TABLETSAT-AURORA
1 40017U 14033H   26066.17888201  .00003557  00000-0  18816-3 0  9995
2 40017  98.0339 134.3228 0011603 198.0577 162.0244 15.16131242639741
APRIZESAT-9
1 40018U 14033J   26065.91735947  .00001321  00000-0  20140-3 0  9995
2 40018  97.8876 201.7229 0066652 168.0470 192.2340 14.74065586628490
APRIZESAT-10
1 40019U 14033K   26066.08173104  .00001032  00000-0  16977-3 0  9998
2 40019  97.9474 195.4243 0077871 239.3464 120.0050 14.70745748627241
AISAT
1 40054U 14034B   26065.29976811  .00012809  00000-0  86791-3 0  9991
2 40054  98.2448 330.3581 0008675 200.2478 159.8404 15.06594314631708
COSMOS-2407 [+]
1 28380U 04028A   26066.20961669  .00000087  00000-0  73314-4 0  9991
2 28380  82.9636 150.3617 0039507 175.6427 213.6710 13.76324720 85857
COSMOS-2414 [+]
1 28521U 05002A   26066.16700417  .00000101  00000-0  71598-4 0  9997
2 28521  82.9485 120.8266 0038684 259.8206  99.8593 13.87915167 69660
COSMOS-2463 [+]
1 36519U 10017A   26066.14958959  .00000077  00000-0  68158-4 0  9999
2 36519  82.9634 324.6972 0037284  54.3755  55.5921 13.71657710793941
NOAA-15
1 25338U 98030A   26066.10456508  .00000165  00000-0  85031-4 0  9993
2 25338  98.5165  89.4534 0009105 288.6244  71.3948 14.27111212446737
NOAA-18
1 28654U 05018A   26066.20622222  .00000069  00000-0  59540-4 0  9999
2 28654  98.8159 147.3483 0015318  82.0441 278.2469 14.13710146 71907
NOAA-19
1 33591U 09005A   26066.18697066  .00000066  00000-0  59135-4 0  9997
2 33591  98.9610 136.9538 0012992 322.2088  37.8171 14.13456161880071
SARAL
1 39086U 13009A   26066.15700051  .00000147  00000-0  70093-4 0  9993
2 39086  98.5553 254.0048 0001332 188.4956 171.6206 14.32827414680997
LAPAN-A3
1 41603U 16040E   26066.15176981  .00005836  00000-0  18887-3 0  9990
2 41603  97.1483  65.7134 0011344  31.3299 328.8617 15.32354105539184
METOP-A
1 29499U 06044A   26066.21175487  .00001974  00000-0  23279-3 0  9999
2 29499  98.3247 169.8001 0175606  34.8503 350.7049 14.75565348 10413
METEOR M1
1 35865U 09049A   26066.13081682  .00000151  00000-0  86656-4 0  9990
2 35865  98.7271  29.4040 0001292 226.8370 133.2701 14.23129753854735
METOP-B
1 38771U 12049A   26066.12212548  .00000124  00000-0  76748-4 0  9990
2 38771  98.6647 119.5956 0001185 280.0234  80.0809 14.21443608698762
METEOR M2
1 40069U 14037A   26066.14927023  .00000245  00000-0  13141-3 0  9996
2 40069  98.5025  45.5546 0005518 345.5180  14.5839 14.21427372604827
CSSWE
1 38761U 12048D   26066.19807627  .00030249  00000-0  72347-3 0  9994
2 38761  64.6615  77.5957 0068010 203.7555 156.0438 15.38935128100673
MCUBED-2
1 39469U 13072H   26065.59149057  .00018990  00000-0  78984-3 0  9999
2 39469 120.4890 316.6791 0137963 264.1877  94.3452 15.15651726102261
IPEX
1 39471U 13072K   26066.15907780  .00013366  00000-0  68983-3 0  9990
2 39471 120.4653 271.3385 0159765 249.5900 108.7943 15.06394217 99859
FOX-1A (AO-85)
1 40967U 15058D   26065.90829786  .00004657  00000-0  42282-3 0  9996
2 40967  64.7742 236.6764 0129055  97.0393 264.5416 14.90325083 98320
OOREOS
1 37224U 10062C   26066.11905384  .00002751  00000-0  26800-3 0  9992
2 37224  71.9715 311.4616 0016912 261.0341  98.8915 14.93262646101407
STARS (KUKAI)
1 33498U 09002G   26065.63928184  .00006663  00000-0  61588-3 0  9990
2 33498  98.1462   8.8863 0009389 140.2247 219.9662 14.94897063923157
YUBELEINY-2 (RS-40)
1 38735U 12041C   26066.18513839  .00000049  00000-0  28310-3 0  9992
2 38735  82.4774 138.3079 0016172 290.1019  69.8320 12.42644276617178
AIST-1
1 39492U 13078C   26066.21963271  .00002165  00000-0  19170-3 0  9992
2 39492  82.4196   9.6332 0015120 259.0122 100.9398 14.95748903660004
VELOX-1
1 40057U 14034E   26066.21873006  .00007793  00000-0  68523-3 0  9998
2 40057  98.2640 325.4768 0005734 248.2677 111.7933 14.96830435631342
DX1
1 40071U 14037C   26066.13906667  .00003355  00000-0  35766-3 0  9991
2 40071  98.3764  21.7474 0005927 240.3869 119.6757 14.89608227630913
COSMOS-2491 (RS-46) [i]
1 39497U 13076E   26066.15786513 -.00000009  00000-0 -13674-3 0  9990
2 39497  82.4822 231.8451 0012363 315.2085  44.7996 12.43495231552570
COSMOS-2499 (RS-47) [i]
1 39765U 14028E   26066.19215859  .00000009  00000-0 -35214-5 0  9995
2 39765  82.4525 321.2690 0230531 241.0259 116.7559 12.82900746551945
TRANSIT 5B-5
1   965U 64083D   26066.14024267  .00000098  00000-0  12510-3 0  9996
2   965  90.0746 202.2094 0040576 214.0349 320.2798 13.57001491 29779
EUTELSAT 1-F4 (ECS 4)
1 18351U 87078B   26065.54516997 -.00000215  00000-0  00000-0 0  9992
2 18351  13.9013 342.8409 0011584  25.2940 168.7849  0.98691139125746
BISONSAT
1 40968U 15058E   26065.83033869  .00007555  00000-0  61338-3 0  9991
2 40968  64.7754 219.2358 0117374  94.3709 267.0826 14.95012896101353
DTUSAT-2
1 40030U 14033W   26065.94873200  .00009497  00000-0  53448-3 0  9996
2 40030  98.0847  57.3179 0006823 212.0753 148.0062 15.13469198637213
ELEKTRO-L2
1 41105U 15074A   26065.86390215 -.00000119  00000-0  00000+0 0  9992
2 41105   6.4373  71.7830 0003279 242.4752 146.8105  1.00271066 37489
DOVE-3
1 39429U 13066P   26066.13061252  .00003499  00000-0  46704-3 0  9992
2 39429  97.6764 291.1544 0115006 356.5198   3.5199 14.75651126655959
FORTE
1 24920U 97047A   26065.89140373  .00000230  00000-0  11594-3 0  9996
2 24920  69.9512 245.0690 0019516  53.7105 306.5816 14.27896643484083
DMSP 5D-2 F15/USA-147
1 25991U 99067A   26066.16456750  .00000189  00000-0  11568-3 0  9993
2 25991  99.0102 103.3856 0008987 295.5118 151.8800 14.17519093356195
CASSIOPE-1
1 39265U 13055A   26066.11597419  .00040006 -55559-6  48067-3 0  9990
2 39265  80.9185 190.0358 0316569  44.7958 317.8362 15.18518301652142
D-STAR ONE PHOENIX
1 43188U 18014J   26065.30670805  .00006811  00000-0  36193-3 0  9997
2 43188  97.5456 330.9512 0009624  21.8834 338.2807 15.15578985443176
S-NET D
1 43186U 18014G   26066.16564860  .00006907  00000-0  36697-3 0  9998
2 43186  97.5435 331.6307 0009109  23.3376 336.8268 15.15583928443300
TEN-KOH
1 43677U 18084G   26066.04456149  .00003418  00000-0  26246-3 0  9990
2 43677  98.0794 254.1206 0011819 100.2278 260.0279 15.02442152400822
STARS-AO
1 43679U 18084J   26065.99535502  .00008766  00000-0  46314-3 0  9995
2 43679  98.0615 273.6852 0002790 133.7000 226.4463 15.15761880401986
